[
    {
        "Altitude(m)": 622200.1511658131,
        "Argument of Periapsis(deg)": 0.0,
        "Eccentricity": 0.0,
        "Inclination(deg)": 60.0,
        "Latitude(deg)": -52.16265957048757,
        "Longitude(deg)": -77.63922747409104,
        "Mean Anomaly(deg)": -65.45450000000001,
        "RAAN(deg)": 70.0,
        "Satellite Name": "Test1 326",
        "Satellite Number": 326,
        "Semi-Major Axis(m)": 6980739.136638005,
        "Time(s)": 0
    },
    {
        "Altitude(m)": 622058.3189733189,
        "Argument of Periapsis(deg)": 0.00010418945913296404,
        "Eccentricity": 0.0,
        "Inclination(deg)": 60.0,
        "Latitude(deg)": -51.799409012786086,
        "Longitude(deg)": -76.87116779428305,
        "Mean Anomaly(deg)": -64.83439385453812,
        "RAAN(deg)": 69.99957995086027,
        "Satellite Name": "Test1 326",
        "Satellite Number": 326,
        "Semi-Major Axis(m)": 6980739.136638005,
        "Time(s)": 10
    }
]